H1 CPF 01  gfz 2021 06 01 12  6522 terrasarx 
H2 0702601  6201 31698    2021 06 01 12 59 42 2021 06 06 00 00 42   120 1 1  0 0 0
H9
10 0 59367  76302.000000  0    1352783.714   -169849.560  -6759030.186
10 0 59367  76422.000000  0    1926221.796   -860178.216  -6564493.947
10 0 59367  76542.000000  0    2454256.700  -1545243.538  -6255426.027
10 0 59367  76662.000000  0    2927917.901  -2212288.536  -5837151.367
10 0 59367  76782.000000  0    3339378.866  -2848698.793  -5316890.874
10 0 59367  76902.000000  0    3682090.004  -3442241.075  -4703648.350
10 0 59367  77022.000000  0    3950886.221  -3981299.157  -4008063.528
10 0 59367  77142.000000  0    4142068.639  -4455102.784  -3242237.900
10 0 59367  77262.000000  0    4253460.362  -4853947.534  -2419532.622
10 0 59367  77382.000000  0    4284433.275  -5169399.834  -1554339.553
10 0 59367  77502.000000  0    4235902.699  -5394481.192   -661829.050
10 0 59367  77622.000000  0    4110291.265  -5523825.619    242320.010
10 0 59367  77742.000000  0    3911461.470  -5553806.903   1142202.148
10 0 59367  77862.000000  0    3644619.232  -5482631.711   2021974.103
10 0 59367  77982.000000  0    3316188.999  -5310394.297   2866143.189
10 0 59367  78102.000000  0    2933664.852  -5039094.144   3659847.133
10 0 59367  78222.000000  0    2505442.223  -4672614.571   4389121.595
10 0 59367  78342.000000  0    2040634.329  -4216663.643   5041149.139
10 0 59367  78462.000000  0    1548877.441  -3678678.915   5604484.762
10 0 59367  78582.000000  0    1040129.773  -3067698.521   6069254.998
10 0 59367  78702.000000  0     524468.104  -2394201.848   6427325.481
10 0 59367  78822.000000  0      11887.784  -1669924.634   6672436.262
10 0 59367  78942.000000  0    -487890.017   -907651.965   6800305.070
10 0 59367  79062.000000  0    -965601.399   -120990.889   6808698.597
10 0 59367  79182.000000  0   -1412610.596    675872.879   6697468.848
10 0 59367  79302.000000  0   -1821065.586   1468430.185   6468555.324
10 0 59367  79422.000000  0   -2184036.163   2242111.579   6125953.381
10 0 59367  79542.000000  0   -2495632.389   2982554.970   5675648.919
10 0 59367  79662.000000  0   -2751101.394   3675873.610   5125519.866
10 0 59367  79782.000000  0   -2946902.229   4308920.134   4485205.344
10 0 59367  79902.000000  0   -3080756.015   4869541.807   3765941.946
10 0 59367  80022.000000  0   -3151670.089   5346821.478   2980369.570
10 0 59367  80142.000000  0   -3159935.212   5731297.832   2142309.037
10 0 59367  80262.000000  0   -3107096.415   6015159.424   1266516.287
10 0 59367  80382.000000  0   -2995897.309   6192408.795    368417.963
10 0 59367  80502.000000  0   -2830199.354   6258992.421   -536167.738
10 0 59367  80622.000000  0   -2614878.695   6212891.914  -1431319.290
10 0 59367  80742.000000  0   -2355701.448   6054172.786  -2301303.683
10 0 59367  80862.000000  0   -2059180.061   5784987.678  -3130860.532
10 0 59367  80982.000000  0   -1732417.813   5409540.396  -3905471.965
10 0 59367  81102.000000  0   -1382945.115   4934010.033  -4611617.201
10 0 59367  81222.000000  0   -1018551.410   4366437.529  -5237004.195
10 0 59367  81342.000000  0    -647116.551   3716580.075  -5770776.777
10 0 59367  81462.000000  0    -276444.437   2995734.489  -6203694.895
10 0 59367  81582.000000  0      85896.966   2216533.381  -6528283.508
10 0 59367  81702.000000  0     432725.214   1392721.324  -6738949.542
10 0 59367  81822.000000  0     757381.078    538913.555  -6832069.442
10 0 59367  81942.000000  0    1053852.778   -329659.657  -6806044.527
10 0 59367  82062.000000  0    1316883.955  -1197419.611  -6661324.586
10 0 59367  82182.000000  0    1542064.183  -2048711.113  -6400399.534
10 0 59367  82302.000000  0    1725901.927  -2868077.241  -6027761.902
10 0 59367  82422.000000  0    1865878.786  -3640535.386  -5549839.294
10 0 59367  82542.000000  0    1960483.470  -4351851.868  -4974894.293
10 0 59367  82662.000000  0    2009225.068  -4988805.614  -4312891.051
10 0 59367  82782.000000  0    2012625.586  -5539438.215  -3575333.809
10 0 59367  82902.000000  0    1972191.204  -5993287.514  -2775076.221
10 0 59367  83022.000000  0    1890361.903  -6341597.755  -1926103.067
10 0 59367  83142.000000  0    1770440.616  -6577499.228  -1043286.952
10 0 59367  83262.000000  0    1616504.440  -6696155.137   -142126.458
10 0 59367  83382.000000  0    1433298.799  -6694868.008    761533.065
10 0 59367  83502.000000  0    1226116.701  -6573144.465   1651784.341
10 0 59367  83622.000000  0    1000666.533  -6332716.596   2512948.871
10 0 59367  83742.000000  0     762932.154  -5977515.288   3329862.041
10 0 59367  83862.000000  0     519027.373  -5513600.587   4088146.564
10 0 59367  83982.000000  0     275050.478  -4949050.721   4774469.252
10 0 59367  84102.000000  0      36941.479  -4293812.063   5376777.068
10 0 59367  84222.000000  0    -189653.865  -3559513.828   5884507.452
10 0 59367  84342.000000  0    -399510.053  -2759251.653   6288769.980
10 0 59367  84462.000000  0    -587936.209  -1907346.440   6582494.565
10 0 59367  84582.000000  0    -750876.055  -1019085.210   6760548.386
10 0 59367  84702.000000  0    -884991.882   -110445.256   6819821.556
10 0 59367  84822.000000  0    -987731.534    802194.125   6759278.574
10 0 59367  84942.000000  0   -1057376.351   1702346.601   6579975.060
10 0 59367  85062.000000  0   -1093069.570   2573715.897   6285040.410
10 0 59367  85182.000000  0   -1094825.551   3400490.793   5879626.778
10 0 59367  85302.000000  0   -1063519.509   4167633.999   5370824.234
10 0 59367  85422.000000  0   -1000856.992   4861159.344   4767542.918
10 0 59367  85542.000000  0    -909325.194   5468394.176   4080363.008
10 0 59367  85662.000000  0    -792125.212   5978218.860   3321352.161
10 0 59367  85782.000000  0    -653088.838   6381280.120   2503857.907
10 0 59367  85902.000000  0    -496579.832   6670175.383   1642270.231
10 0 59367  86022.000000  0    -327380.740   6839596.174    751762.736
10 0 59367  86142.000000  0    -150570.095   6886431.349   -151980.952
10 0 59367  86262.000000  0      28607.484   6809827.682  -1053051.816
10 0 59367  86382.000000  0     204875.047   6611203.391  -1935605.957
10 0 59368    102.000000  0     373055.703   6294214.220  -2784150.741
10 0 59368    222.000000  0     528201.756   5864677.062  -3583821.242
10 0 59368    342.000000  0     665717.923   5330452.199  -4320642.886
10 0 59368    462.000000  0     781475.303   4701286.897  -4981774.339
10 0 59368    582.000000  0     871913.470   3988625.405  -5555726.015
10 0 59368    702.000000  0     934128.220   3205390.739  -6032551.485
10 0 59368    822.000000  0     965943.032   2365742.695  -6404009.697
10 0 59368    942.000000  0     965963.850   1484818.119  -6663695.143
10 0 59368   1062.000000  0     933615.700    578459.281  -6807137.849
10 0 59368   1182.000000  0     869161.203   -337067.443  -6831872.483
10 0 59368   1302.000000  0     773700.531  -1245358.134  -6737475.428
10 0 59368   1422.000000  0     649152.665  -2130157.484  -6525569.467
10 0 59368   1542.000000  0     498219.201  -2975641.095  -6199799.761
10 0 59368   1662.000000  0     324329.677  -3766694.824  -5765780.049
10 0 59368   1782.000000  0     131569.857  -4489183.737  -5231004.395
10 0 59368   1902.000000  0     -75405.307  -5130206.150  -4604729.127
10 0 59368   2022.000000  0    -291474.074  -5678330.206  -3897824.188
10 0 59368   2142.000000  0    -511163.286  -6123807.360  -3122593.852
10 0 59368   2262.000000  0    -728774.446  -6458757.107  -2292569.576
10 0 59368   2382.000000  0    -938518.005  -6677319.809  -1422277.639
10 0 59368   2502.000000  0   -1134652.445  -6775771.901   -526983.691
10 0 59368   2622.000000  0   -1311624.773  -6752599.222    377579.525
10 0 59368   2742.000000  0   -1464209.120  -6608526.740   1275495.323
10 0 59368   2862.000000  0   -1587640.022  -6346503.654   2150951.759
10 0 59368   2982.000000  0   -1677736.240  -5971643.084   2988529.513
10 0 59368   3102.000000  0   -1731012.023  -5491117.689   3773481.667
10 0 59368   3222.000000  0   -1744772.261  -4914014.558   4491998.969
10 0 59368   3342.000000  0   -1717190.108  -4251154.479   5131454.542
10 0 59368   3462.000000  0   -1647366.269  -3514880.430   5680626.269
10 0 59368   3582.000000  0   -1535367.090  -2718817.437   6129891.400
10 0 59368   3702.000000  0   -1382240.510  -1877612.868   6471388.645
10 0 59368   3822.000000  0   -1190011.138  -1006663.371   6699149.483
10 0 59368   3942.000000  0    -961655.337   -121830.214   6809197.027
10 0 59368   4062.000000  0    -701055.941    760849.804   6799610.402
10 0 59368   4182.000000  0    -412936.162   1625454.275   6670556.914
10 0 59368   4302.000000  0    -102773.874   2456462.117   6424289.374
10 0 59368   4422.000000  0     223301.939   3239032.007   6065108.937
10 0 59368   4542.000000  0     558630.351   3959268.625   5599294.846
10 0 59368   4662.000000  0     896151.956   4604473.115   5035000.379
10 0 59368   4782.000000  0    1228554.870   5163372.928   4382116.109
10 0 59368   4902.000000  0    1548429.406   5626326.122   3652100.900
10 0 59368   5022.000000  0    1848429.225   5985497.096   2857786.571
10 0 59368   5142.000000  0    2121437.391   6235000.486   2013150.822
10 0 59368   5262.000000  0    2360728.079   6371005.384   1133066.845
10 0 59368   5382.000000  0    2560123.970   6391797.817    233034.153
10 0 59368   5502.000000  0    2714142.978   6297800.236   -671101.780
10 0 59368   5622.000000  0    2818132.267   6091549.287  -1563436.545
10 0 59368   5742.000000  0    2868385.803   5777630.909  -2428294.328
10 0 59368   5862.000000  0    2862242.313   5362575.365  -3250509.985
10 0 59368   5982.000000  0    2798161.082   4854713.637  -4015699.710
10 0 59368   6102.000000  0    2675773.357   4264000.180  -4710512.675
10 0 59368   6222.000000  0    2495909.018   3601808.265  -5322860.009
10 0 59368   6342.000000  0    2260599.225   2880703.174  -5842117.712
99
